[Satellite]
VERSION=1.1
NAME=UOSAT 2 (UO-11)
NICKNAME=UO-11
TLE1=1 14781U 84021B   17186.25140170  .00000072  00000-0  15157-4 0  9991
TLE2=2 14781  97.6958 231.3004 0009604 133.9551 226.2457 14.82906320772027
